{{Infobox Planet  
| name = 415 Palatia
| image = 
| caption = 
| discovery=yes | physical_characteristics = yes | bgcolour=#FFFFC0
| discovery_ref = 
| discoverer = [[马克斯·沃夫|马克斯·沃夫]]
| discovery_site = [[海德堡|海德堡]]
| discovered =  1896年2月7日
| mp_name = 415
| alt_names = 1896 CO
| named_after = [[普法尔茨|普法尔茨]]
| mp_category=[[小行星带|主带小行星]]
| orbit_ref = <ref>[http://ssd.jpl.nasa.gov/sbdb.cgi?sstr=415 415 Palatia (1896 CO)]</ref>
| epoch = 2011年8月27日
| semimajor= 2.792295271225725AU
| perihelion=1.94915359219223AU
| aphelion=3.63543695025922[[天文单位|AU]]
| eccentricity =0.3019529086776641	
| period =1704.278001082658[[日|地球日]]<br>4.67[[年|地球年]] 
| inclination=8.170969085894862[[角度|°]]
| asc_node=127.0198144875277°	
| arg_peri=297.0522101032845°
| mean_anomaly=334.630702995857°
| avg_speed=
 | dimensions=76.34千米
 | mass=
 | density=
 | surface_grav=
 | escape_velocity=
 | rotation=20.73小时
 | spectral_type=
 | magnitude=
 | abs_magnitude=9.21
 | albedo=0.0628	
 | single_temperature=
}}
'''小行星415'''（'''415 Palatia'''），是由[[德国|德国]][[天文学家|天文学家]][[马克斯·沃夫|马克斯·沃夫]]于1896年2月7日在德国[[海德堡|海德堡]][[王座山天文台|王座山天文台]]发现的[[小行星带|主带]][[小行星|小行星]]。

小行星415以[[普法尔茨|普法尔茨]]命名。

== 参考资料 ==
{{Reflist}}

{{Minor Planet Number|(414)[[小行星414|小行星414]]|(416)[[小行星416|小行星416]]}}

[[Category:小行星带天体|Category:小行星带天体]]
[[Category:1896年发现的小行星|Category:1896年发现的小行星]]